{"type":"FeatureCollection","crs":{"type":"name","properties":{"name":"EPSG:4326"}},"features":[{"type":"Feature","id":2,"geometry":{"type":"Point","coordinates":[-122.977721619035,49.1863556072457]},"properties":{"OBJECTID":2,"SiteID":2,"Name":"MV Waste-to-Energy Facility","SiteAddress":"5150 Riverbend Dr., Burnaby","Municipality":"Burnaby","Province":"BC","PhoneNo":"604-521-1025","Operator":"","PublicFacilityType":"Waste-to-Energy Facility","GlobalID":"399e1ca4-5f60-48d6-9a1b-4eab32a82e81"}},{"type":"Feature","id":3,"geometry":{"type":"Point","coordinates":[-122.99488936394,49.2611352946824]},"properties":{"OBJECTID":3,"SiteID":4,"Name":"Burnaby Eco-Centre","SiteAddress":"4855 Still Creek Ave., Burnaby","Municipality":"Burnaby","Province":"BC","PhoneNo":"604-294-7210","Operator":"City of Burnaby","PublicFacilityType":"Municipal Recycling Depot","GlobalID":"e10c4ba8-6ec3-44b3-a22d-b560d0c18d07"}},{"type":"Feature","id":6,"geometry":{"type":"Point","coordinates":[-122.469208184054,49.0219459694245]},"properties":{"OBJECTID":6,"SiteID":12,"Name":"Langley Recycling and Waste Centre","SiteAddress":"1070 - 272 St., Aldergrove","Municipality":"Aldergrove","Province":"BC","PhoneNo":"604-681-5600","Operator":"","PublicFacilityType":"Recycling and Waste Centre","GlobalID":"a25a66c8-25b0-4b9e-ae7e-375edff56f69"}},{"type":"Feature","id":7,"geometry":{"type":"Point","coordinates":[-123.022482095177,49.0984435831582]},"properties":{"OBJECTID":7,"SiteID":47,"Name":"Vancouver Landfill","SiteAddress":"5400 72 St., Delta","Municipality":"Delta","Province":"BC","PhoneNo":"604-873-7000","Operator":"City of Vancouver","PublicFacilityType":"Landfill","GlobalID":"26ca661f-4266-4358-ad4f-11c7b8a5862f"}},{"type":"Feature","id":8,"geometry":{"type":"Point","coordinates":[-123.018526706738,49.3013188614289]},"properties":{"OBJECTID":8,"SiteID":22,"Name":"North Shore Recycling and Waste Centre","SiteAddress":"30 Riverside Dr., North Vancouver","Municipality":"North Vancouver","Province":"BC","PhoneNo":"604-681-5600","Operator":"","PublicFacilityType":"Recycling and Waste Centre","GlobalID":"7655bc9a-466d-4d45-b109-208f3145cdf0"}},{"type":"Feature","id":9,"geometry":{"type":"Point","coordinates":[-122.568722694264,49.1856604434995]},"properties":{"OBJECTID":9,"SiteID":16,"Name":"Maple Ridge Recycling and Waste Centre","SiteAddress":"10092 - 236 St., Maple Ridge","Municipality":"Maple Ridge","Province":"BC","PhoneNo":"604-681-5600","Operator":"","PublicFacilityType":"Recycling and Waste Centre","GlobalID":"4e2f210b-a5cf-480e-a9d3-f1cfb758a8da"}},{"type":"Feature","id":10,"geometry":{"type":"Point","coordinates":[-122.568841467413,49.1863040553874]},"properties":{"OBJECTID":10,"SiteID":17,"Name":"Maple Ridge Recycling Depot","SiteAddress":"10092 - 236 St., Maple Ridge","Municipality":"Maple Ridge","Province":"BC","PhoneNo":"604-463-5545","Operator":"Ridge Meadows Recycling Society","PublicFacilityType":"Municipal Recycling Depot","GlobalID":"3cc9ab64-7636-4617-a34b-f20df99190b2"}},{"type":"Feature","id":11,"geometry":{"type":"Point","coordinates":[-123.114226301903,49.2071793904888]},"properties":{"OBJECTID":11,"SiteID":40,"Name":"Vancouver South Transfer Station","SiteAddress":"377 W. Kent, Vancouver","Municipality":"Vancouver","Province":"BC","PhoneNo":"604-873-7000","Operator":"City of Vancouver","PublicFacilityType":"Recycling and Waste Centre","GlobalID":"e7f48e6a-81db-4f81-9ca0-b9372284dee1"}},{"type":"Feature","id":12,"geometry":{"type":"Point","coordinates":[-122.687110969347,49.1805304502658]},"properties":{"OBJECTID":12,"SiteID":60,"Name":"North Surrey Recycling and Waste Centre","SiteAddress":"9770 - 192nd Street","Municipality":"Surrey","Province":"BC","PhoneNo":"604-681-5600","Operator":"","PublicFacilityType":"Recycling and Waste Centre","GlobalID":"5786b9dd-463f-4658-9c02-6a9015939e94"}},{"type":"Feature","id":13,"geometry":{"type":"Point","coordinates":[-123.164492258394,49.1723514274603]},"properties":{"OBJECTID":13,"SiteID":61,"Name":"Richmond Recycling Depot","SiteAddress":"5555 Lynas Lane, Richmond","Municipality":"Richmond","Province":"BC","PhoneNo":"604-276-4010","Operator":"City of Richmond","PublicFacilityType":"Municipal Recycling Depot","GlobalID":"9e6627ea-bdfc-41a5-a6f9-b261489c85c7"}},{"type":"Feature","id":16,"geometry":{"type":"Point","coordinates":[-123.114434907442,49.2070464026591]},"properties":{"OBJECTID":16,"SiteID":61,"Name":"Vancouver Zero Waste Centre","SiteAddress":"8688 Yukon St., Vancouver","Municipality":"Vancouver","Province":"BC","PhoneNo":"604-873-7000","Operator":"City of Vancouver","PublicFacilityType":"Municipal Recycling Depot","GlobalID":"6c88086f-3802-464b-b2e8-cbf22193806c"}},{"type":"Feature","id":17,"geometry":{"type":"Point","coordinates":[-122.784463390257,49.288383462032]},"properties":{"OBJECTID":17,"SiteID":64,"Name":"Coquitlam Town Centre Recycling Depot","SiteAddress":"Trevor Wingrove Way, Coquitlam","Municipality":"Coquitlam","Province":"BC","PhoneNo":"604-927-3500","Operator":"City of Coquitlam","PublicFacilityType":"Municipal Recycling Depot","GlobalID":"9321cb7d-c111-49ef-a458-4eae2c0c67b7"}},{"type":"Feature","id":18,"geometry":{"type":"Point","coordinates":[-122.870226334866,49.2300015220551]},"properties":{"OBJECTID":18,"SiteID":65,"Name":"United Boulevard Recycling and Waste Centre","SiteAddress":"995 United Blvd., Coquitlam","Municipality":"Coquitlam","Province":"BC","PhoneNo":"604-681-5600","Operator":null,"PublicFacilityType":"Recycling and Waste Centre","GlobalID":"e3badf87-2422-4c5a-8183-c5d0a7c55391"}},{"type":"Feature","id":418,"geometry":{"type":"Point","coordinates":[-122.795794975328,49.12495226326]},"properties":{"OBJECTID":418,"SiteID":66,"Name":"Central Surrey Recycling and Waste Centre","SiteAddress":"6711 154 St., Surrey","Municipality":"Surrey","Province":"BC","PhoneNo":"604-681-5600","Operator":null,"PublicFacilityType":"Recycling and Waste Centre","GlobalID":"806fc1d9-3f39-4a80-902b-449d4a927b5c"}}]}